start=new Date('2021-12-25T00:00:00.000Z').valueOf();
sats=[{"SITE":"AFETR","ECCENTRICITY":"0.00017730","TIME_SYSTEM":"UTC","OBJECT_ID":"2021-018Z","EPHEMERIS_TYPE":"0","BSTAR":"0.00034307000000","INCLINATION":"53.0554","REV_AT_EPOCH":"4499","ELEMENT_SET_NO":"999","MEAN_MOTION_DOT":"0.00004833","MEAN_MOTION":"15.06409013","OBJECT_TYPE":"PAYLOAD","TLE_LINE1":"1 47810U 21018Z   21358.66944022  .00004833  00000-0  34307-3 0  9992","PERIOD":"95.592","RA_OF_ASC_NODE":"317.0903","REF_FRAME":"TEME","ARG_OF_PERICENTER":"55.4917","APOAPSIS":"548.414","MEAN_ANOMALY":"304.6239","CLASSIFICATION_TYPE":"U","MEAN_MOTION_DDOT":"0.0000000000000","LAUNCH_DATE":"2021-03-11","OBJECT_NAME":"STARLINK-2391","PERIAPSIS":"545.958","NORAD_CAT_ID":"47810","GP_ID":"192397260","SEMIMAJOR_AXIS":"6925.321","MEAN_ELEMENT_THEORY":"SGP4","FILE":"3250462","DECAY_DATE":null,"RCS_SIZE":"LARGE","CENTER_NAME":"EARTH","TLE_LINE2":"2 47810  53.0554 317.0903 0001773  55.4917 304.6239 15.06409013 44998","COUNTRY_CODE":"US","EPOCH":"2021-12-24T16:03:59.635008"},{"NORAD_CAT_ID":"47811","PERIAPSIS":"545.964","LAUNCH_DATE":"2021-03-11","OBJECT_NAME":"STARLINK-2392","SEMIMAJOR_AXIS":"6925.341","GP_ID":"192397512","ARG_OF_PERICENTER":"60.0504","APOAPSIS":"548.448","MEAN_ANOMALY":"300.0663","MEAN_MOTION_DDOT":"0.0000000000000","CLASSIFICATION_TYPE":"U","RCS_SIZE":"LARGE","CENTER_NAME":"EARTH","COUNTRY_CODE":"US","TLE_LINE2":"2 47811  53.0559 286.3074 0001793  60.0504 300.0663 15.06402400 45442","EPOCH":"2021-12-24T20:12:08.329248","FILE":"3250462","MEAN_ELEMENT_THEORY":"SGP4","DECAY_DATE":null,"MEAN_MOTION_DOT":"0.00003730","SITE":"AFETR","ECCENTRICITY":"0.00017930","TIME_SYSTEM":"UTC","OBJECT_ID":"2021-018AA","INCLINATION":"53.0559","REV_AT_EPOCH":"4544","ELEMENT_SET_NO":"999","BSTAR":"0.00026917000000","EPHEMERIS_TYPE":"0","PERIOD":"95.592","TLE_LINE1":"1 47811U 21018AA  21358.84176307  .00003730  00000-0  26917-3 0  9999","REF_FRAME":"TEME","RA_OF_ASC_NODE":"286.3074","MEAN_MOTION":"15.06402400","OBJECT_TYPE":"PAYLOAD"},{"MEAN_MOTION_DOT":"-0.00000100","ECCENTRICITY":"0.00016980","SITE":"AFETR","TIME_SYSTEM":"UTC","OBJECT_ID":"2021-018AB","INCLINATION":"53.0558","REV_AT_EPOCH":"4496","ELEMENT_SET_NO":"999","BSTAR":"0.00001221000000","EPHEMERIS_TYPE":"0","PERIOD":"95.593","TLE_LINE1":"1 47812U 21018AB  21358.87954908 -.00000100  00000-0  12210-4 0  9995","REF_FRAME":"TEME","RA_OF_ASC_NODE":"316.1303","MEAN_MOTION":"15.06392762","OBJECT_TYPE":"PAYLOAD","PERIAPSIS":"546.060","NORAD_CAT_ID":"47812","LAUNCH_DATE":"2021-03-11","OBJECT_NAME":"STARLINK-2393","SEMIMAJOR_AXIS":"6925.371","GP_ID":"192397763","ARG_OF_PERICENTER":"59.0398","MEAN_ANOMALY":"301.0757","APOAPSIS":"548.412","MEAN_MOTION_DDOT":"0.0000000000000","CLASSIFICATION_TYPE":"U","RCS_SIZE":"LARGE","CENTER_NAME":"EARTH","COUNTRY_CODE":"US","TLE_LINE2":"2 47812  53.0558 316.1303 0001698  59.0398 301.0757 15.06392762 44962","EPOCH":"2021-12-24T21:06:33.040512","FILE":"3250462","MEAN_ELEMENT_THEORY":"SGP4","DECAY_DATE":null},{"OBJECT_TYPE":"PAYLOAD","MEAN_MOTION":"15.06403914","RA_OF_ASC_NODE":"287.7026","REF_FRAME":"TEME","TLE_LINE1":"1 47813U 21018AC  21358.53214376  .00005936  00000-0  41701-3 0  9994","PERIOD":"95.592","EPHEMERIS_TYPE":"0","BSTAR":"0.00041701000000","ELEMENT_SET_NO":"999","INCLINATION":"53.0543","REV_AT_EPOCH":"4539","TIME_SYSTEM":"UTC","OBJECT_ID":"2021-018AC","ECCENTRICITY":"0.00018300","SITE":"AFETR","MEAN_MOTION_DOT":"0.00005936","DECAY_DATE":null,"MEAN_ELEMENT_THEORY":"SGP4","FILE":"3250462","COUNTRY_CODE":"US","TLE_LINE2":"2 47813  53.0543 287.7026 0001830  60.4727 299.6444 15.06403914 45397","EPOCH":"2021-12-24T12:46:17.220864","CENTER_NAME":"EARTH","RCS_SIZE":"LARGE","CLASSIFICATION_TYPE":"U","MEAN_MOTION_DDOT":"0.0000000000000","APOAPSIS":"548.469","MEAN_ANOMALY":"299.6444","ARG_OF_PERICENTER":"60.4727","GP_ID":"192396511","SEMIMAJOR_AXIS":"6925.337","OBJECT_NAME":"STARLINK-2394","LAUNCH_DATE":"2021-03-11","PERIAPSIS":"545.934","NORAD_CAT_ID":"47813"},{"RA_OF_ASC_NODE":"306.1064","REF_FRAME":"TEME","TLE_LINE1":"1 47814U 21018AD  21358.88783955 -.00002735  00000-0 -16483-3 0  9992","PERIOD":"95.593","OBJECT_TYPE":"PAYLOAD","MEAN_MOTION":"15.06392731","MEAN_MOTION_DOT":"-0.00002735","EPHEMERIS_TYPE":"0","BSTAR":"-0.00016483000000","ELEMENT_SET_NO":"999","REV_AT_EPOCH":"4517","INCLINATION":"53.0550","TIME_SYSTEM":"UTC","OBJECT_ID":"2021-018AD","SITE":"AFETR","ECCENTRICITY":"0.00018090","TLE_LINE2":"2 47814  53.0550 306.1064 0001809  56.2582 303.8579 15.06392731 45179","COUNTRY_CODE":"US","EPOCH":"2021-12-24T21:18:29.337120","CENTER_NAME":"EARTH","RCS_SIZE":"MEDIUM","DECAY_DATE":null,"MEAN_ELEMENT_THEORY":"SGP4","FILE":"3250462","GP_ID":"192396761","SEMIMAJOR_AXIS":"6925.371","OBJECT_NAME":"STARLINK-2395","LAUNCH_DATE":"2021-03-11","NORAD_CAT_ID":"47814","PERIAPSIS":"545.983","CLASSIFICATION_TYPE":"U","MEAN_MOTION_DDOT":"0.0000000000000","MEAN_ANOMALY":"303.8579","APOAPSIS":"548.489","ARG_OF_PERICENTER":"56.2582"},{"MEAN_ELEMENT_THEORY":"SGP4","FILE":"3250462","DECAY_DATE":null,"CENTER_NAME":"EARTH","RCS_SIZE":"LARGE","TLE_LINE2":"2 47815  53.0535 301.2632 0002064  54.7712 305.3470 15.06416339 45170","EPOCH":"2021-12-24T20:28:43.028256","COUNTRY_CODE":"US","APOAPSIS":"548.593","MEAN_ANOMALY":"305.3470","ARG_OF_PERICENTER":"54.7712","CLASSIFICATION_TYPE":"U","MEAN_MOTION_DDOT":"0.0000000000000","OBJECT_NAME":"STARLINK-2396","LAUNCH_DATE":"2021-03-11","PERIAPSIS":"545.734","NORAD_CAT_ID":"47815","GP_ID":"192398012","SEMIMAJOR_AXIS":"6925.298","MEAN_MOTION":"15.06416339","OBJECT_TYPE":"PAYLOAD","TLE_LINE1":"1 47815U 21018AE  21358.85327579  .00007227  00000-0  50338-3 0  9992","PERIOD":"95.591","RA_OF_ASC_NODE":"301.2632","REF_FRAME":"TEME","TIME_SYSTEM":"UTC","OBJECT_ID":"2021-018AE","ECCENTRICITY":"0.00020640","SITE":"AFETR","BSTAR":"0.00050338000000","EPHEMERIS_TYPE":"0","ELEMENT_SET_NO":"999","INCLINATION":"53.0535","REV_AT_EPOCH":"4517","MEAN_MOTION_DOT":"0.00007227"},{"CENTER_NAME":"EARTH","RCS_SIZE":"LARGE","TLE_LINE2":"2 47816  53.0563 306.2187 0001777  52.2165 307.8985 15.06391922 45108","COUNTRY_CODE":"US","EPOCH":"2021-12-24T20:41:20.468544","FILE":"3250462","MEAN_ELEMENT_THEORY":"SGP4","DECAY_DATE":null,"PERIAPSIS":"546.008","NORAD_CAT_ID":"47816","OBJECT_NAME":"STARLINK-2399","LAUNCH_DATE":"2021-03-11","SEMIMAJOR_AXIS":"6925.373","GP_ID":"192398263","MEAN_ANOMALY":"307.8985","APOAPSIS":"548.469","ARG_OF_PERICENTER":"52.2165","MEAN_MOTION_DDOT":"0.0000000000000","CLASSIFICATION_TYPE":"U","PERIOD":"95.593","TLE_LINE1":"1 47816U 21018AF  21358.86204246  .00000741  00000-0  68650-4 0  9990","REF_FRAME":"TEME","RA_OF_ASC_NODE":"306.2187","MEAN_MOTION":"15.06391922","OBJECT_TYPE":"PAYLOAD","MEAN_MOTION_DOT":"0.00000741","OBJECT_ID":"2021-018AF","TIME_SYSTEM":"UTC","SITE":"AFETR","ECCENTRICITY":"0.00017770","ELEMENT_SET_NO":"999","REV_AT_EPOCH":"4510","INCLINATION":"53.0563","BSTAR":"0.00006865000000","EPHEMERIS_TYPE":"0"},{"MEAN_MOTION_DOT":"0.00002669","OBJECT_ID":"2021-018AG","TIME_SYSTEM":"UTC","ECCENTRICITY":"0.00022080","SITE":"AFETR","EPHEMERIS_TYPE":"0","BSTAR":"0.00019801000000","ELEMENT_SET_NO":"999","INCLINATION":"53.0545","REV_AT_EPOCH":"4510","TLE_LINE1":"1 47817U 21018AG  21358.88046409  .00002669  00000-0  19801-3 0  9992","PERIOD":"95.592","RA_OF_ASC_NODE":"306.1230","REF_FRAME":"TEME","MEAN_MOTION":"15.06405196","OBJECT_TYPE":"PAYLOAD","OBJECT_NAME":"STARLINK-2400","LAUNCH_DATE":"2021-03-11","PERIAPSIS":"545.669","NORAD_CAT_ID":"47817","GP_ID":"192397011","SEMIMAJOR_AXIS":"6925.333","MEAN_ANOMALY":"302.4410","APOAPSIS":"548.727","ARG_OF_PERICENTER":"57.6792","CLASSIFICATION_TYPE":"U","MEAN_MOTION_DDOT":"0.0000000000000","CENTER_NAME":"EARTH","RCS_SIZE":"LARGE","TLE_LINE2":"2 47817  53.0545 306.1230 0002208  57.6792 302.4410 15.06405196 45105","COUNTRY_CODE":"US","EPOCH":"2021-12-24T21:07:52.097376","MEAN_ELEMENT_THEORY":"SGP4","FILE":"3250462","DECAY_DATE":null},{"OBJECT_TYPE":"PAYLOAD","MEAN_MOTION":"15.06386452","REF_FRAME":"TEME","RA_OF_ASC_NODE":"311.0151","PERIOD":"95.593","TLE_LINE1":"1 47818U 21018AH  21358.90765791 -.00002346  00000-0 -13867-3 0  9998","REV_AT_EPOCH":"4504","INCLINATION":"53.0562","ELEMENT_SET_NO":"999","BSTAR":"-0.00013867000000","EPHEMERIS_TYPE":"0","ECCENTRICITY":"0.00018590","SITE":"AFETR","TIME_SYSTEM":"UTC","OBJECT_ID":"2021-018AH","MEAN_MOTION_DOT":"-0.00002346","DECAY_DATE":null,"FILE":"3250462","MEAN_ELEMENT_THEORY":"SGP4","EPOCH":"2021-12-24T21:47:01.643424","TLE_LINE2":"2 47818  53.0562 311.0151 0001859  50.6896 309.4258 15.06386452 45044","COUNTRY_CODE":"US","RCS_SIZE":"LARGE","CENTER_NAME":"EARTH","MEAN_MOTION_DDOT":"0.0000000000000","CLASSIFICATION_TYPE":"U","ARG_OF_PERICENTER":"50.6896","APOAPSIS":"548.543","MEAN_ANOMALY":"309.4258","SEMIMAJOR_AXIS":"6925.390","GP_ID":"192397261","PERIAPSIS":"545.968","NORAD_CAT_ID":"47818","LAUNCH_DATE":"2021-03-11","OBJECT_NAME":"STARLINK-2401"},{"MEAN_MOTION_DOT":"0.00003307","SITE":"AFETR","ECCENTRICITY":"0.00018840","TIME_SYSTEM":"UTC","OBJECT_ID":"2021-018AJ","INCLINATION":"53.0551","REV_AT_EPOCH":"4509","ELEMENT_SET_NO":"999","BSTAR":"0.00024077000000","EPHEMERIS_TYPE":"0","PERIOD":"95.592","TLE_LINE1":"1 47819U 21018AJ  21358.35336907  .00003307  00000-0  24077-3 0  9992","REF_FRAME":"TEME","RA_OF_ASC_NODE":"308.5130","MEAN_MOTION":"15.06404050","OBJECT_TYPE":"PAYLOAD","PERIAPSIS":"545.896","NORAD_CAT_ID":"47819","LAUNCH_DATE":"2021-03-11","OBJECT_NAME":"STARLINK-2402","SEMIMAJOR_AXIS":"6925.336","GP_ID":"192363478","ARG_OF_PERICENTER":"57.2670","APOAPSIS":"548.506","MEAN_ANOMALY":"302.8500","MEAN_MOTION_DDOT":"0.0000000000000","CLASSIFICATION_TYPE":"U","RCS_SIZE":"MEDIUM","CENTER_NAME":"EARTH","TLE_LINE2":"2 47819  53.0551 308.5130 0001884  57.2670 302.8500 15.06404050 45099","COUNTRY_CODE":"US","EPOCH":"2021-12-24T08:28:51.087648","FILE":"3250080","MEAN_ELEMENT_THEORY":"SGP4","DECAY_DATE":null}];
